{"type": "FeatureCollection", "features": [ {"type": "Feature", "properties": {"norad_id": 29940, "name": "FENGYUN 1C DEB", "group": "fengyun-1c-debris", "lat": 21.24792516236235, "lon": -13.12806115657238, "alt_km": 834.6702055417782, "timestamp": "2025-12-06T09:34:17.186252+00:00", "meta": {"OBJECT_NAME": "FENGYUN 1C DEB", "OBJECT_ID": "1999-025JN", "EPOCH": "2025-12-05T19:04:08.585184", "MEAN_MOTION": 14.18795289, "ECCENTRICITY": 0.00746316, "INCLINATION": 98.6212, "RA_OF_ASC_NODE": 349.6663, "ARG_OF_PERICENTER": 119.5828, "MEAN_ANOMALY": 58.227, "EPHEMERIS_TYPE": 0, "CLASSIFICATION_TYPE": "U", "NORAD_CAT_ID": 29940, "ELEMENT_SET_NO": 999, "REV_AT_EPOCH": 97389, "BSTAR": 0.0009902786, "MEAN_MOTION_DOT": 2.075e-05, "MEAN_MOTION_DDOT": 0}, "tle": {"line1": "1 29940U 99025JN  25339.79454381  .00002075  00000+0  99028-3 0  9996", "line2": "2 29940  98.6212 349.6663 0074631 119.5828  58.2270 14.18795289973890"}}, "geometry": {"type": "Point", "coordinates": [-13.12806115657238, 21.24792516236235]}}, {"type": "Feature", "properties": {"norad_id": 29942, "name": "FENGYUN 1C DEB", "group": "fengyun-1c-debris", "lat": -20.041674014720492, "lon": 49.461462177789066, "alt_km": 770.7086240350527, "timestamp": "2025-12-06T09:34:17.186262+00:00", "meta": {"OBJECT_NAME": "FENGYUN 1C DEB", "OBJECT_ID": "1999-025JQ", "EPOCH": "2025-12-05T18:33:21.647808", "MEAN_MOTION": 14.30374199, "ECCENTRICITY": 0.00487393, "INCLINATION": 98.638, "RA_OF_ASC_NODE": 45.6615, "ARG_OF_PERICENTER": 296.8961, "MEAN_ANOMALY": 62.7245, "EPHEMERIS_TYPE": 0, "CLASSIFICATION_TYPE": "U", "NORAD_CAT_ID": 29942, "ELEMENT_SET_NO": 999, "REV_AT_EPOCH": 97769, "BSTAR": 0.001381753, "MEAN_MOTION_DOT": 3.594e-05, "MEAN_MOTION_DDOT": 0}, "tle": {"line1": "1 29942U 99025JQ  25339.77316722  .00003594  00000+0  13818-2 0  9991", "line2": "2 29942  98.6380  45.6615 0048739 296.8961  62.7245 14.30374199977696"}}, "geometry": {"type": "Point", "coordinates": [49.461462177789066, -20.041674014720492]}}, {"type": "Feature", "properties": {"norad_id": 29943, "name": "FENGYUN 1C DEB", "group": "fengyun-1c-debris", "lat": 40.65491324686994, "lon": -19.229907217868604, "alt_km": 880.1251555190875, "timestamp": "2025-12-06T09:34:17.186272+00:00", "meta": {"OBJECT_NAME": "FENGYUN 1C DEB", "OBJECT_ID": "1999-025JR", "EPOCH": "2025-12-05T23:26:22.164288", "MEAN_MOTION": 14.0966903, "ECCENTRICITY": 0.00346632, "INCLINATION": 98.7269, "RA_OF_ASC_NODE": 347.9406, "ARG_OF_PERICENTER": 246.6641, "MEAN_ANOMALY": 173.2797, "EPHEMERIS_TYPE": 0, "CLASSIFICATION_TYPE": "U", "NORAD_CAT_ID": 29943, "ELEMENT_SET_NO": 999, "REV_AT_EPOCH": 97211, "BSTAR": 0.00012569672, "MEAN_MOTION_DOT": 1.79e-06, "MEAN_MOTION_DDOT": 0}, "tle": {"line1": "1 29943U 99025JR  25339.97664542  .00000179  00000+0  12570-3 0  9991", "line2": "2 29943  98.7269 347.9406 0034663 246.6641 173.2797 14.09669030972118"}}, "geometry": {"type": "Point", "coordinates": [-19.229907217868604, 40.65491324686994]}}, {"type": "Feature", "properties": {"norad_id": 29944, "name": "FENGYUN 1C DEB", "group": "fengyun-1c-debris", "lat": -56.0769683561009, "lon": 79.99553977030602, "alt_km": 500.7509232592856, "timestamp": "2025-12-06T09:34:17.186283+00:00", "meta": {"OBJECT_NAME": "FENGYUN 1C DEB", "OBJECT_ID": "1999-025JS", "EPOCH": "2025-12-05T17:58:00.778368", "MEAN_MOTION": 14.87323442, "ECCENTRICITY": 0.01668421, "INCLINATION": 99.0023, "RA_OF_ASC_NODE": 272.8925, "ARG_OF_PERICENTER": 254.4583, "MEAN_ANOMALY": 103.8156, "EPHEMERIS_TYPE": 0, "CLASSIFICATION_TYPE": "U", "NORAD_CAT_ID": 29944, "ELEMENT_SET_NO": 999, "REV_AT_EPOCH": 350, "BSTAR": 0.0013697776, "MEAN_MOTION_DOT": 0.00015932, "MEAN_MOTION_DDOT": 0}, "tle": {"line1": "1 29944U 99025JS  25339.74862012  .00015932  00000+0  13698-2 0  9993", "line2": "2 29944  99.0023 272.8925 0166842 254.4583 103.8156 14.87323442  3506"}}, "geometry": {"type": "Point", "coordinates": [79.99553977030602, -56.0769683561009]}}, {"type": "Feature", "properties": {"norad_id": 29945, "name": "FENGYUN 1C DEB", "group": "fengyun-1c-debris", "lat": -18.468654049027382, "lon": 7.1941210106354045, "alt_km": 861.8267465020899, "timestamp": "2025-12-06T09:34:17.186294+00:00", "meta": {"OBJECT_NAME": "FENGYUN 1C DEB", "OBJECT_ID": "1999-025JT", "EPOCH": "2025-12-05T23:41:24.827424", "MEAN_MOTION": 14.05569826, "ECCENTRICITY": 0.00312678, "INCLINATION": 98.7926, "RA_OF_ASC_NODE": 3.8317, "ARG_OF_PERICENTER": 21.38, "MEAN_ANOMALY": 38.1072, "EPHEMERIS_TYPE": 0, "CLASSIFICATION_TYPE": "U", "NORAD_CAT_ID": 29945, "ELEMENT_SET_NO": 999, "REV_AT_EPOCH": 96883, "BSTAR": 0.00012096901, "MEAN_MOTION_DOT": 1.55e-06, "MEAN_MOTION_DDOT": 0}, "tle": {"line1": "1 29945U 99025JT  25339.98709291  .00000155  00000+0  12097-3 0  9993", "line2": "2 29945  98.7926   3.8317 0031267  21.3800  38.1072 14.05569826968838"}}, "geometry": {"type": "Point", "coordinates": [7.1941210106354045, -18.468654049027382]}}, {"type": "Feature", "properties": {"norad_id": 29946, "name": "FENGYUN 1C DEB", "group": "fengyun-1c-debris", "lat": -57.65814626206041, "lon": -13.0638424730437, "alt_km": 842.7854538720649, "timestamp": "2025-12-06T09:34:17.186360+00:00", "meta": {"OBJECT_NAME": "FENGYUN 1C DEB", "OBJECT_ID": "1999-025JU", "EPOCH": "2025-12-05T23:56:05.786016", "MEAN_MOTION": 14.08244145, "ECCENTRICITY": 0.00809845, "INCLINATION": 98.7795, "RA_OF_ASC_NODE": 332.4191, "ARG_OF_PERICENTER": 2.494, "MEAN_ANOMALY": 65.1749, "EPHEMERIS_TYPE": 0, "CLASSIFICATION_TYPE": "U", "NORAD_CAT_ID": 29946, "ELEMENT_SET_NO": 999, "REV_AT_EPOCH": 96952, "BSTAR": 0.00053284965, "MEAN_MOTION_DOT": 8.95e-06, "MEAN_MOTION_DDOT": 0}, "tle": {"line1": "1 29946U 99025JU  25339.99728919  .00000895  00000+0  53285-3 0  9998", "line2": "2 29946  98.7795 332.4191 0080984   2.4940  65.1749 14.08244145969524"}}, "geometry": {"type": "Point", "coordinates": [-13.0638424730437, -57.65814626206041]}}, {"type": "Feature", "properties": {"norad_id": 29947, "name": "FENGYUN 1C DEB", "group": "fengyun-1c-debris", "lat": 39.139661464260136, "lon": 3.863092041447451, "alt_km": 884.3279335068837, "timestamp": "2025-12-06T09:34:17.186372+00:00", "meta": {"OBJECT_NAME": "FENGYUN 1C DEB", "OBJECT_ID": "1999-025JV", "EPOCH": "2025-12-05T23:26:06.624384", "MEAN_MOTION": 14.03058651, "ECCENTRICITY": 0.00407918, "INCLINATION": 98.8371, "RA_OF_ASC_NODE": 10.7266, "ARG_OF_PERICENTER": 139.2444, "MEAN_ANOMALY": 288.9166, "EPHEMERIS_TYPE": 0, "CLASSIFICATION_TYPE": "U", "NORAD_CAT_ID": 29947, "ELEMENT_SET_NO": 999, "REV_AT_EPOCH": 96655, "BSTAR": 0.00038360534, "MEAN_MOTION_DOT": 5.58e-06, "MEAN_MOTION_DDOT": 0}, "tle": {"line1": "1 29947U 99025JV  25339.97646556  .00000558  00000+0  38361-3 0  9997", "line2": "2 29947  98.8371  10.7266 0040791 139.2444 288.9166 14.03058651966553"}}, "geometry": {"type": "Point", "coordinates": [3.863092041447451, 39.139661464260136]}}, {"type": "Feature", "properties": {"norad_id": 29948, "name": "FENGYUN 1C DEB", "group": "fengyun-1c-debris", "lat": -14.513553373068518, "lon": 144.43238426841617, "alt_km": 843.691588573528, "timestamp": "2025-12-06T09:34:17.186383+00:00", "meta": {"OBJECT_NAME": "FENGYUN 1C DEB", "OBJECT_ID": "1999-025JW", "EPOCH": "2025-12-05T22:39:26.500608", "MEAN_MOTION": 14.06187463, "ECCENTRICITY": 0.00835693, "INCLINATION": 98.8236, "RA_OF_ASC_NODE": 326.2937, "ARG_OF_PERICENTER": 252.8845, "MEAN_ANOMALY": 161.6813, "EPHEMERIS_TYPE": 0, "CLASSIFICATION_TYPE": "U", "NORAD_CAT_ID": 29948, "ELEMENT_SET_NO": 999, "REV_AT_EPOCH": 96881, "BSTAR": 0.00011538901, "MEAN_MOTION_DOT": 1.52e-06, "MEAN_MOTION_DDOT": 0}, "tle": {"line1": "1 29948U 99025JW  25339.94405672  .00000152  00000+0  11539-3 0  9995", "line2": "2 29948  98.8236 326.2937 0083569 252.8845 161.6813 14.06187463968815"}}, "geometry": {"type": "Point", "coordinates": [144.43238426841617, -14.513553373068518]}}, {"type": "Feature", "properties": {"norad_id": 29949, "name": "FENGYUN 1C DEB", "group": "fengyun-1c-debris", "lat": 45.15254291323136, "lon": -174.7981026799972, "alt_km": 883.0927137626095, "timestamp": "2025-12-06T09:34:17.186394+00:00", "meta": {"OBJECT_NAME": "FENGYUN 1C DEB", "OBJECT_ID": "1999-025JX", "EPOCH": "2025-12-05T22:58:55.973856", "MEAN_MOTION": 14.06824957, "ECCENTRICITY": 0.00234872, "INCLINATION": 98.7626, "RA_OF_ASC_NODE": 355.8542, "ARG_OF_PERICENTER": 325.2973, "MEAN_ANOMALY": 95.4064, "EPHEMERIS_TYPE": 0, "CLASSIFICATION_TYPE": "U", "NORAD_CAT_ID": 29949, "ELEMENT_SET_NO": 999, "REV_AT_EPOCH": 97012, "BSTAR": -8.548646e-06, "MEAN_MOTION_DOT": -5.7e-07, "MEAN_MOTION_DDOT": 0}, "tle": {"line1": "1 29949U 99025JX  25339.95759229 -.00000057  00000+0 -85486-5 0  9997", "line2": "2 29949  98.7626 355.8542 0023487 325.2973  95.4064 14.06824957970123"}}, "geometry": {"type": "Point", "coordinates": [-174.7981026799972, 45.15254291323136]}}, {"type": "Feature", "properties": {"norad_id": 29950, "name": "FENGYUN 1C DEB", "group": "fengyun-1c-debris", "lat": -67.93007257174989, "lon": 169.35112852151707, "alt_km": 842.6034595308529, "timestamp": "2025-12-06T09:34:17.186405+00:00", "meta": {"OBJECT_NAME": "FENGYUN 1C DEB", "OBJECT_ID": "1999-025JY", "EPOCH": "2025-12-05T22:44:13.156800", "MEAN_MOTION": 14.10329522, "ECCENTRICITY": 0.00321794, "INCLINATION": 98.7417, "RA_OF_ASC_NODE": 11.2145, "ARG_OF_PERICENTER": 261.8701, "MEAN_ANOMALY": 217.0689, "EPHEMERIS_TYPE": 0, "CLASSIFICATION_TYPE": "U", "NORAD_CAT_ID": 29950, "ELEMENT_SET_NO": 999, "REV_AT_EPOCH": 97195, "BSTAR": 0.0001904565, "MEAN_MOTION_DOT": 2.96e-06, "MEAN_MOTION_DDOT": 0}, "tle": {"line1": "1 29950U 99025JY  25339.94737450  .00000296  00000+0  19046-3 0  9990", "line2": "2 29950  98.7417  11.2145 0032179 261.8701 217.0689 14.10329522971957"}}, "geometry": {"type": "Point", "coordinates": [169.35112852151707, -67.93007257174989]}}]}